[Satellite]
VERSION=1.1
NAME=RADUGA 32
NICKNAME=RADUGA 32
TLE1=1 23448U 94087A   15050.91680353 -.00000077  00000-0  00000+0 0  9999
TLE2=2 23448  13.8269  28.3598 0008273 159.8770   1.8108  1.00277877 91472
